[
    {
        "Altitude(m)": 553815.7323436476,
        "Argument of Periapsis(deg)": 0.013245982221427002,
        "Eccentricity": 0.0,
        "Inclination(deg)": 53.0,
        "Latitude(deg)": 19.966092522870106,
        "Longitude(deg)": 172.62418193958516,
        "Mean Anomaly(deg)": 154.7286857351552,
        "RAAN(deg)": 109.98028673705603,
        "Satellite Name": "Starlink Shell 1 492",
        "Satellite Number": 492,
        "Semi-Major Axis(m)": 6931778.249405717,
        "Time(s)": 380
    },
    {
        "Altitude(m)": 553777.6866228548,
        "Argument of Periapsis(deg)": 0.013594560700938237,
        "Eccentricity": 0.0,
        "Inclination(deg)": 53.0,
        "Latitude(deg)": 19.48103682320608,
        "Longitude(deg)": 173.00778505950262,
        "Mean Anomaly(deg)": 155.3555169387119,
        "RAAN(deg)": 109.97976796697856,
        "Satellite Name": "Starlink Shell 1 492",
        "Satellite Number": 492,
        "Semi-Major Axis(m)": 6931778.249405717,
        "Time(s)": 390
    },
    {
        "Altitude(m)": 553741.7655435896,
        "Argument of Periapsis(deg)": 0.013943139180449475,
        "Eccentricity": 0.0,
        "Inclination(deg)": 53.0,
        "Latitude(deg)": 18.994966952378018,
        "Longitude(deg)": 173.38886349315277,
        "Mean Anomaly(deg)": 155.9823481422686,
        "RAAN(deg)": 109.97924919690108,
        "Satellite Name": "Starlink Shell 1 492",
        "Satellite Number": 492,
        "Semi-Major Axis(m)": 6931778.249405717,
        "Time(s)": 400
    },
    {
        "Altitude(m)": 553708.0080636527,
        "Argument of Periapsis(deg)": 0.014291717659960712,
        "Eccentricity": 0.0,
        "Inclination(deg)": 53.0,
        "Latitude(deg)": 18.507915744186512,
        "Longitude(deg)": 173.76749480425002,
        "Mean Anomaly(deg)": 156.60917934582534,
        "RAAN(deg)": 109.9787304268236,
        "Satellite Name": "Starlink Shell 1 492",
        "Satellite Number": 492,
        "Semi-Major Axis(m)": 6931778.249405717,
        "Time(s)": 410
    },
    {
        "Altitude(m)": 553676.4522037808,
        "Argument of Periapsis(deg)": 0.014640296139471948,
        "Eccentricity": 0.0,
        "Inclination(deg)": 53.0,
        "Latitude(deg)": 18.01991547463981,
        "Longitude(deg)": 174.14375504874963,
        "Mean Anomaly(deg)": 157.23601054938203,
        "RAAN(deg)": 109.97821165674615,
        "Satellite Name": "Starlink Shell 1 492",
        "Satellite Number": 492,
        "Semi-Major Axis(m)": 6931778.249405717,
        "Time(s)": 420
    },
    {
        "Altitude(m)": 553647.1350262429,
        "Argument of Periapsis(deg)": 0.014988874618983185,
        "Eccentricity": 0.0,
        "Inclination(deg)": 53.0,
        "Latitude(deg)": 17.530997882043465,
        "Longitude(deg)": 174.51771930486444,
        "Mean Anomaly(deg)": 157.86284175293872,
        "RAAN(deg)": 109.97769288666868,
        "Satellite Name": "Starlink Shell 1 492",
        "Satellite Number": 492,
        "Semi-Major Axis(m)": 6931778.249405717,
        "Time(s)": 430
    },
    {
        "Altitude(m)": 553620.092613906,
        "Argument of Periapsis(deg)": 0.015337453098494424,
        "Eccentricity": 0.0,
        "Inclination(deg)": 53.0,
        "Latitude(deg)": 17.041194186645154,
        "Longitude(deg)": 174.88946220338076,
        "Mean Anomaly(deg)": 158.48967295649547,
        "RAAN(deg)": 109.9771741165912,
        "Satellite Name": "Starlink Shell 1 492",
        "Satellite Number": 492,
        "Semi-Major Axis(m)": 6931778.249405717,
        "Time(s)": 440
    },
    {
        "Altitude(m)": 553595.3600497623,
        "Argument of Periapsis(deg)": 0.01568603157800566,
        "Eccentricity": 0.0,
        "Inclination(deg)": 53.0,
        "Latitude(deg)": 16.55053510984707,
        "Longitude(deg)": 175.259056945351,
        "Mean Anomaly(deg)": 159.1165041600522,
        "RAAN(deg)": 109.97665534651372,
        "Satellite Name": "Starlink Shell 1 492",
        "Satellite Number": 492,
        "Semi-Major Axis(m)": 6931778.249405717,
        "Time(s)": 450
    },
    {
        "Altitude(m)": 553572.9713969134,
        "Argument of Periapsis(deg)": 0.0160346100575169,
        "Eccentricity": 0.0,
        "Inclination(deg)": 53.0,
        "Latitude(deg)": 16.0590508929928,
        "Longitude(deg)": 175.6265758328648,
        "Mean Anomaly(deg)": 159.7433353636089,
        "RAAN(deg)": 109.97613657643625,
        "Satellite Name": "Starlink Shell 1 492",
        "Satellite Number": 492,
        "Semi-Major Axis(m)": 6931778.249405717,
        "Time(s)": 460
    },
    {
        "Altitude(m)": 553552.9596790682,
        "Argument of Periapsis(deg)": 0.016383188537028134,
        "Eccentricity": 0.0,
        "Inclination(deg)": 53.0,
        "Latitude(deg)": 15.566771315743276,
        "Longitude(deg)": 175.99209079998516,
        "Mean Anomaly(deg)": 160.37016656716563,
        "RAAN(deg)": 109.97561780635877,
        "Satellite Name": "Starlink Shell 1 492",
        "Satellite Number": 492,
        "Semi-Major Axis(m)": 6931778.249405717,
        "Time(s)": 470
    },
    {
        "Altitude(m)": 553535.356861509,
        "Argument of Periapsis(deg)": 0.01673176701653937,
        "Eccentricity": 0.0,
        "Inclination(deg)": 53.0,
        "Latitude(deg)": 15.073725714056486,
        "Longitude(deg)": 176.35567243093897,
        "Mean Anomaly(deg)": 160.99699777072232,
        "RAAN(deg)": 109.97509903628132,
        "Satellite Name": "Starlink Shell 1 492",
        "Satellite Number": 492,
        "Semi-Major Axis(m)": 6931778.249405717,
        "Time(s)": 480
    },
    {
        "Altitude(m)": 553520.1938325852,
        "Argument of Periapsis(deg)": 0.017080345496050607,
        "Eccentricity": 0.0,
        "Inclination(deg)": 53.0,
        "Latitude(deg)": 14.57994299777748,
        "Longitude(deg)": 176.71739049127729,
        "Mean Anomaly(deg)": 161.62382897427906,
        "RAAN(deg)": 109.97458026620384,
        "Satellite Name": "Starlink Shell 1 492",
        "Satellite Number": 492,
        "Semi-Major Axis(m)": 6931778.249405717,
        "Time(s)": 490
    },
    {
        "Altitude(m)": 553507.5003857249,
        "Argument of Periapsis(deg)": 0.017428923975561842,
        "Eccentricity": 0.0,
        "Inclination(deg)": 53.0,
        "Latitude(deg)": 14.08545166785428,
        "Longitude(deg)": 177.07731445910085,
        "Mean Anomaly(deg)": 162.25066017783575,
        "RAAN(deg)": 109.97406149612637,
        "Satellite Name": "Starlink Shell 1 492",
        "Satellite Number": 492,
        "Semi-Major Axis(m)": 6931778.249405717,
        "Time(s)": 500
    },
    {
        "Altitude(m)": 553497.3052019444,
        "Argument of Periapsis(deg)": 0.01777750245507308,
        "Eccentricity": 0.0,
        "Inclination(deg)": 53.0,
        "Latitude(deg)": 13.59027983319458,
        "Longitude(deg)": 177.43551254345255,
        "Mean Anomaly(deg)": 162.87749138139247,
        "RAAN(deg)": 109.97354272604889,
        "Satellite Name": "Starlink Shell 1 492",
        "Satellite Number": 492,
        "Semi-Major Axis(m)": 6931778.249405717,
        "Time(s)": 510
    },
    {
        "Altitude(m)": 553489.6358329542,
        "Argument of Periapsis(deg)": 0.018126080934584315,
        "Eccentricity": 0.0,
        "Inclination(deg)": 53.0,
        "Latitude(deg)": 13.094455227169917,
        "Longitude(deg)": 177.79205221560005,
        "Mean Anomaly(deg)": 163.50432258494914,
        "RAAN(deg)": 109.97302395597141,
        "Satellite Name": "Starlink Shell 1 492",
        "Satellite Number": 492,
        "Semi-Major Axis(m)": 6931778.249405717,
        "Time(s)": 520
    },
    {
        "Altitude(m)": 553484.5186847381,
        "Argument of Periapsis(deg)": 0.018474659414095554,
        "Eccentricity": 0.0,
        "Inclination(deg)": 53.0,
        "Latitude(deg)": 12.59800522378367,
        "Longitude(deg)": 178.1470007403151,
        "Mean Anomaly(deg)": 164.13115378850588,
        "RAAN(deg)": 109.97250518589394,
        "Satellite Name": "Starlink Shell 1 492",
        "Satellite Number": 492,
        "Semi-Major Axis(m)": 6931778.249405717,
        "Time(s)": 530
    },
    {
        "Altitude(m)": 553481.9790017583,
        "Argument of Periapsis(deg)": 0.018823237893606792,
        "Eccentricity": 0.0,
        "Inclination(deg)": 53.0,
        "Latitude(deg)": 12.100956853517111,
        "Longitude(deg)": 178.50042419425762,
        "Mean Anomaly(deg)": 164.75798499206266,
        "RAAN(deg)": 109.97198641581649,
        "Satellite Name": "Starlink Shell 1 492",
        "Satellite Number": 492,
        "Semi-Major Axis(m)": 6931778.249405717,
        "Time(s)": 540
    },
    {
        "Altitude(m)": 553482.0408516765,
        "Argument of Periapsis(deg)": 0.019171816373118027,
        "Eccentricity": 0.0,
        "Inclination(deg)": 53.0,
        "Latitude(deg)": 11.603336818860997,
        "Longitude(deg)": 178.85238799719662,
        "Mean Anomaly(deg)": 165.38481619561935,
        "RAAN(deg)": 109.971467645739,
        "Satellite Name": "Starlink Shell 1 492",
        "Satellite Number": 492,
        "Semi-Major Axis(m)": 6931778.249405717,
        "Time(s)": 550
    },
    {
        "Altitude(m)": 553484.7271106719,
        "Argument of Periapsis(deg)": 0.019520394852629266,
        "Eccentricity": 0.0,
        "Inclination(deg)": 53.0,
        "Latitude(deg)": 11.105171509548644,
        "Longitude(deg)": 179.20295744318068,
        "Mean Anomaly(deg)": 166.01164739917607,
        "RAAN(deg)": 109.97094887566152,
        "Satellite Name": "Starlink Shell 1 492",
        "Satellite Number": 492,
        "Semi-Major Axis(m)": 6931778.249405717,
        "Time(s)": 560
    }
]